<?xml version="1.0" encoding="UTF-8"?>
<kml xmlns="http://www.opengis.net/kml/2.2">
<Document>
<Placemark>
  <ExtendedData>
    <Data name='version'>
      <value>v11</value>
    </Data>
    <Data name='metodo'>
      <value>JRC_waterClass&gt;=2|buffer_600m|scale=30m|v11</value>
    </Data>
    <Data name='satelite'>
      <value>Landsat 5 TM (JRC Yearly)</value>
    </Data>
    <Data name='rio'>
      <value>Rio Chinchina</value>
    </Data>
    <Data name='anno'>
      <value>2006</value>
    </Data>
    <Data name='area_m2'>
      <value>83177.22983311591</value>
    </Data>
    <Data name='count'>
      <value>93</value>
    </Data>
    <Data name='system:index'>
      <value>+387088+270381</value>
    </Data>
    <Data name='agua'>
      <value>1</value>
    </Data>
  </ExtendedData>
  <Polygon>
    <outerBoundaryIs>
      <LinearRing>
        <coordinates>-75.68216437178559,5.133602354157844 -75.68162538261511,5.133602354157844 -75.68162538261511,5.134141343328309 -75.68135588802988,5.134141343328309 -75.68135588802988,5.134680332498789 -75.68162538261511,5.134680332498789 -75.68162538261511,5.135488816254494 -75.68189487720035,5.135488816254494 -75.68189487720035,5.136836289180664 -75.68162538261511,5.136836289180664 -75.68162538261511,5.1373752783511435 -75.68135588802988,5.1373752783511435 -75.68135588802988,5.137644772936383 -75.6808168988594,5.137644772936383 -75.6808168988594,5.137914267521609 -75.68054740427417,5.137914267521609 -75.68054740427417,5.138722751277314 -75.6800084151037,5.138722751277314 -75.6800084151037,5.139261740447793 -75.67973892051846,5.139261740447793 -75.67973892051846,5.139800729618258 -75.679199931348,5.139800729618258 -75.679199931348,5.140339718788738 -75.67893043676276,5.140339718788738 -75.67893043676276,5.140609213373978 -75.67866094217752,5.140609213373978 -75.67866094217752,5.141148202544443 -75.67839144759229,5.141148202544443 -75.67839144759229,5.1414176971296826 -75.67812195300705,5.1414176971296826 -75.67812195300705,5.141687191714908 -75.67785245842181,5.141687191714908 -75.67785245842181,5.141956686300148 -75.67596599632516,5.141956686300148 -75.67596599632516,5.1422261808853875 -75.67569650173992,5.1422261808853875 -75.67569650173992,5.142495675470627 -75.6754270071547,5.142495675470627 -75.6754270071547,5.1430346646410925 -75.67515751256946,5.1430346646410925 -75.67515751256946,5.144112642982037 -75.6754270071547,5.144112642982037 -75.6754270071547,5.1430346646410925 -75.67596599632516,5.1430346646410925 -75.67596599632516,5.142495675470627 -75.67677448008087,5.142495675470627 -75.67677448008087,5.1422261808853875 -75.67812195300705,5.1422261808853875 -75.67812195300705,5.142495675470627 -75.67866094217752,5.142495675470627 -75.67866094217752,5.1422261808853875 -75.67893043676276,5.1422261808853875 -75.67893043676276,5.141687191714908 -75.679199931348,5.141687191714908 -75.679199931348,5.141148202544443 -75.67946942593322,5.141148202544443 -75.67946942593322,5.140609213373978 -75.67973892051846,5.140609213373978 -75.67973892051846,5.140070224203498 -75.6800084151037,5.140070224203498 -75.6800084151037,5.139800729618258 -75.68027790968894,5.139800729618258 -75.68027790968894,5.138992245862553 -75.68054740427417,5.138992245862553 -75.68054740427417,5.138722751277314 -75.6808168988594,5.138722751277314 -75.6808168988594,5.1381837621068485 -75.68135588802988,5.1381837621068485 -75.68135588802988,5.137914267521609 -75.68162538261511,5.137914267521609 -75.68162538261511,5.1373752783511435 -75.68189487720035,5.1373752783511435 -75.68189487720035,5.137105783765904 -75.68216437178559,5.137105783765904 -75.68216437178559,5.136836289180664 -75.68243386637081,5.136836289180664 -75.68243386637081,5.135488816254494 -75.68216437178559,5.135488816254494 -75.68216437178559,5.135219321669254 -75.68189487720035,5.135219321669254 -75.68189487720035,5.134680332498789 -75.68216437178559,5.134680332498789 -75.68216437178559,5.133602354157844 </coordinates>
      </LinearRing>
    </outerBoundaryIs>
  </Polygon>
</Placemark>
</Document>
</kml>